JILIN-1 GAOFEN 3A       
1 44312U 19032C   26068.74542089  .00016264  00000+0  55381-3 0  9993
2 44312  44.9746 183.2861 0002618 111.2900 248.8263 15.30271310372592
STARLINK-35566          
1 66061U 25235D   26068.75022623  .00021336  00000+0  73036-3 0  9991
2 66061  53.1598 244.7815 0000946  58.9602 301.1491 15.30202439 22936
